CCSDS_OMM_VERS = 2.0
CREATION_DATE  = 
ORIGINATOR     = 

OBJECT_NAME    = STARLINK-36799
OBJECT_ID      = 2026-037AC
CENTER_NAME    = EARTH
REF_FRAME      = TEME
TIME_SYSTEM    = UTC
MEAN_ELEMENT_THEORY = SGP/SGP4

EPOCH          = 2026-03-11T10:00:01.999584
MEAN_MOTION    = 15.82005990
ECCENTRICITY   = .0001545
INCLINATION    = 42.9988
RA_OF_ASC_NODE = 187.7149
ARG_OF_PERICENTER = 270.9691
MEAN_ANOMALY   = 239.4657

EPHEMERIS_TYPE = 0
CLASSIFICATION_TYPE = U
NORAD_CAT_ID   = 67958
ELEMENT_SET_NO = 999
REV_AT_EPOCH   = 347
BSTAR          = .11111E-3
MEAN_MOTION_DOT = .22913E-3
MEAN_MOTION_DDOT = 0

CCSDS_OMM_VERS = 2.0
CREATION_DATE  = 
ORIGINATOR     = 

OBJECT_NAME    = STARLINK-36834
OBJECT_ID      = 2026-037AD
CENTER_NAME    = EARTH
REF_FRAME      = TEME
TIME_SYSTEM    = UTC
MEAN_ELEMENT_THEORY = SGP/SGP4

EPOCH          = 2026-03-11T10:00:01.999584
MEAN_MOTION    = 15.81998901
ECCENTRICITY   = .0001581
INCLINATION    = 42.9987
RA_OF_ASC_NODE = 187.6931
ARG_OF_PERICENTER = 266.5771
MEAN_ANOMALY   = 252.3935

EPHEMERIS_TYPE = 0
CLASSIFICATION_TYPE = U
NORAD_CAT_ID   = 67959
ELEMENT_SET_NO = 999
REV_AT_EPOCH   = 347
BSTAR          = -.1381E-4
MEAN_MOTION_DOT = -.3437E-4
MEAN_MOTION_DDOT = 0

CCSDS_OMM_VERS = 2.0
CREATION_DATE  = 
ORIGINATOR     = 

OBJECT_NAME    = STARLINK-36841
OBJECT_ID      = 2026-037AE
CENTER_NAME    = EARTH
REF_FRAME      = TEME
TIME_SYSTEM    = UTC
MEAN_ELEMENT_THEORY = SGP/SGP4

EPOCH          = 2026-03-11T12:00:02.998944
MEAN_MOTION    = 15.82023101
ECCENTRICITY   = .0001404
INCLINATION    = 42.9986
RA_OF_ASC_NODE = 187.1939
ARG_OF_PERICENTER = 285.5884
MEAN_ANOMALY   = 344.3681

EPHEMERIS_TYPE = 0
CLASSIFICATION_TYPE = U
NORAD_CAT_ID   = 67960
ELEMENT_SET_NO = 999
REV_AT_EPOCH   = 348
BSTAR          = -.13517E-3
MEAN_MOTION_DOT = -.2891E-3
MEAN_MOTION_DDOT = 0

CCSDS_OMM_VERS = 2.0
CREATION_DATE  = 
ORIGINATOR     = 

OBJECT_NAME    = STARLINK-36912
OBJECT_ID      = 2026-038A
CENTER_NAME    = EARTH
REF_FRAME      = TEME
TIME_SYSTEM    = UTC
MEAN_ELEMENT_THEORY = SGP/SGP4

EPOCH          = 2026-03-11T10:00:01.999584
MEAN_MOTION    = 15.81299684
ECCENTRICITY   = .0001214
INCLINATION    = 97.2763
RA_OF_ASC_NODE = 80.7960
ARG_OF_PERICENTER = 92.4416
MEAN_ANOMALY   = 65.5000

EPHEMERIS_TYPE = 0
CLASSIFICATION_TYPE = U
NORAD_CAT_ID   = 67961
ELEMENT_SET_NO = 999
REV_AT_EPOCH   = 347
BSTAR          = -.40131E-2
MEAN_MOTION_DOT = -.724162E-2
MEAN_MOTION_DDOT = 0

CCSDS_OMM_VERS = 2.0
CREATION_DATE  = 
ORIGINATOR     = 

OBJECT_NAME    = STARLINK-36881
OBJECT_ID      = 2026-038B
CENTER_NAME    = EARTH
REF_FRAME      = TEME
TIME_SYSTEM    = UTC
MEAN_ELEMENT_THEORY = SGP/SGP4

EPOCH          = 2026-03-11T12:00:02.998944
MEAN_MOTION    = 15.81129884
ECCENTRICITY   = .0001511
INCLINATION    = 97.2763
RA_OF_ASC_NODE = 80.8858
ARG_OF_PERICENTER = 99.0727
MEAN_ANOMALY   = 176.7613

EPHEMERIS_TYPE = 0
CLASSIFICATION_TYPE = U
NORAD_CAT_ID   = 67962
ELEMENT_SET_NO = 999
REV_AT_EPOCH   = 349
BSTAR          = -.28834E-2
MEAN_MOTION_DOT = -.527942E-2
MEAN_MOTION_DDOT = 0

CCSDS_OMM_VERS = 2.0
CREATION_DATE  = 
ORIGINATOR     = 

OBJECT_NAME    = STARLINK-36357
OBJECT_ID      = 2026-038C
CENTER_NAME    = EARTH
REF_FRAME      = TEME
TIME_SYSTEM    = UTC
MEAN_ELEMENT_THEORY = SGP/SGP4

EPOCH          = 2026-03-11T10:00:01.999584
MEAN_MOTION    = 15.81803980
ECCENTRICITY   = .0001297
INCLINATION    = 97.2752
RA_OF_ASC_NODE = 80.8015
ARG_OF_PERICENTER = 79.7733
MEAN_ANOMALY   = 92.1356

EPHEMERIS_TYPE = 0
CLASSIFICATION_TYPE = U
NORAD_CAT_ID   = 67963
ELEMENT_SET_NO = 999
REV_AT_EPOCH   = 347
BSTAR          = -.66494E-2
MEAN_MOTION_DOT = -.118815E-1
MEAN_MOTION_DDOT = 0

CCSDS_OMM_VERS = 2.0
CREATION_DATE  = 
ORIGINATOR     = 

OBJECT_NAME    = STARLINK-36349
OBJECT_ID      = 2026-038D
CENTER_NAME    = EARTH
REF_FRAME      = TEME
TIME_SYSTEM    = UTC
MEAN_ELEMENT_THEORY = SGP/SGP4

EPOCH          = 2026-03-11T12:00:02.998944
MEAN_MOTION    = 15.81321941
ECCENTRICITY   = .0001124
INCLINATION    = 97.2753
RA_OF_ASC_NODE = 80.8870
ARG_OF_PERICENTER = 99.3133
MEAN_ANOMALY   = 181.6801

EPHEMERIS_TYPE = 0
CLASSIFICATION_TYPE = U
NORAD_CAT_ID   = 67964
ELEMENT_SET_NO = 999
REV_AT_EPOCH   = 349
BSTAR          = -.4557E-2
MEAN_MOTION_DOT = -.814633E-2
MEAN_MOTION_DDOT = 0

CCSDS_OMM_VERS = 2.0
CREATION_DATE  = 
ORIGINATOR     = 

OBJECT_NAME    = STARLINK-36806
OBJECT_ID      = 2026-038E
CENTER_NAME    = EARTH
REF_FRAME      = TEME
TIME_SYSTEM    = UTC
MEAN_ELEMENT_THEORY = SGP/SGP4

EPOCH          = 2026-03-11T10:00:01.999584
MEAN_MOTION    = 15.82053944
ECCENTRICITY   = .0001223
INCLINATION    = 97.2742
RA_OF_ASC_NODE = 80.8033
ARG_OF_PERICENTER = 99.7636
MEAN_ANOMALY   = 78.1303

EPHEMERIS_TYPE = 0
CLASSIFICATION_TYPE = U
NORAD_CAT_ID   = 67965
ELEMENT_SET_NO = 999
REV_AT_EPOCH   = 347
BSTAR          = -.77243E-2
MEAN_MOTION_DOT = -.1370197E-1
MEAN_MOTION_DDOT = 0

CCSDS_OMM_VERS = 2.0
CREATION_DATE  = 
ORIGINATOR     = 

OBJECT_NAME    = STARLINK-36820
OBJECT_ID      = 2026-038F
CENTER_NAME    = EARTH
REF_FRAME      = TEME
TIME_SYSTEM    = UTC
MEAN_ELEMENT_THEORY = SGP/SGP4

EPOCH          = 2026-03-11T10:00:01.999584
MEAN_MOTION    = 15.82226351
ECCENTRICITY   = .0001515
INCLINATION    = 97.2743
RA_OF_ASC_NODE = 80.8056
ARG_OF_PERICENTER = 93.8030
MEAN_ANOMALY   = 89.0865

EPHEMERIS_TYPE = 0
CLASSIFICATION_TYPE = U
NORAD_CAT_ID   = 67966
ELEMENT_SET_NO = 999
REV_AT_EPOCH   = 347
BSTAR          = -.81337E-2
MEAN_MOTION_DOT = -.1472892E-1
MEAN_MOTION_DDOT = 0

CCSDS_OMM_VERS = 2.0
CREATION_DATE  = 
ORIGINATOR     = 

OBJECT_NAME    = STARLINK-36819
OBJECT_ID      = 2026-038G
CENTER_NAME    = EARTH
REF_FRAME      = TEME
TIME_SYSTEM    = UTC
MEAN_ELEMENT_THEORY = SGP/SGP4

EPOCH          = 2026-03-11T10:00:01.999584
MEAN_MOTION    = 15.82395413
ECCENTRICITY   = .0001437
INCLINATION    = 97.2739
RA_OF_ASC_NODE = 80.8077
ARG_OF_PERICENTER = 99.9143
MEAN_ANOMALY   = 88.3775

EPHEMERIS_TYPE = 0
CLASSIFICATION_TYPE = U
NORAD_CAT_ID   = 67967
ELEMENT_SET_NO = 999
REV_AT_EPOCH   = 347
BSTAR          = -.83414E-2
MEAN_MOTION_DOT = -.1516634E-1
MEAN_MOTION_DDOT = 0

CCSDS_OMM_VERS = 2.0
CREATION_DATE  = 
ORIGINATOR     = 

OBJECT_NAME    = STARLINK-36812
OBJECT_ID      = 2026-038H
CENTER_NAME    = EARTH
REF_FRAME      = TEME
TIME_SYSTEM    = UTC
MEAN_ELEMENT_THEORY = SGP/SGP4

EPOCH          = 2026-03-11T12:00:02.998944
MEAN_MOTION    = 15.82229881
ECCENTRICITY   = .0001324
INCLINATION    = 97.2733
RA_OF_ASC_NODE = 80.8973
ARG_OF_PERICENTER = 109.0432
MEAN_ANOMALY   = 198.2846

EPHEMERIS_TYPE = 0
CLASSIFICATION_TYPE = U
NORAD_CAT_ID   = 67968
ELEMENT_SET_NO = 999
REV_AT_EPOCH   = 349
BSTAR          = -.82119E-2
MEAN_MOTION_DOT = -.1485501E-1
MEAN_MOTION_DDOT = 0

CCSDS_OMM_VERS = 2.0
CREATION_DATE  = 
ORIGINATOR     = 

OBJECT_NAME    = STARLINK-36709
OBJECT_ID      = 2026-038J
CENTER_NAME    = EARTH
REF_FRAME      = TEME
TIME_SYSTEM    = UTC
MEAN_ELEMENT_THEORY = SGP/SGP4

EPOCH          = 2026-03-11T10:00:01.999584
MEAN_MOTION    = 15.82828886
ECCENTRICITY   = .0001516
INCLINATION    = 97.2727
RA_OF_ASC_NODE = 80.8142
ARG_OF_PERICENTER = 99.2667
MEAN_ANOMALY   = 104.6722

EPHEMERIS_TYPE = 0
CLASSIFICATION_TYPE = U
NORAD_CAT_ID   = 67969
ELEMENT_SET_NO = 999
REV_AT_EPOCH   = 347
BSTAR          = -.80185E-2
MEAN_MOTION_DOT = -.1491355E-1
MEAN_MOTION_DDOT = 0

