STARLINK-36799          
1 67958U 26037AC  26070.41668981  .00022913  00000+0  11111-3 0  9995
2 67958  42.9988 187.7149 0001545 270.9691 239.4657 15.82005990  3472
STARLINK-36834          
1 67959U 26037AD  26070.41668981 -.00003437  00000+0 -13810-4 0  9997
2 67959  42.9987 187.6931 0001581 266.5771 252.3935 15.81998901  3475
STARLINK-36841          
1 67960U 26037AE  26070.50003471 -.00028910  00000+0 -13517-3 0  9992
2 67960  42.9986 187.1939 0001404 285.5884 344.3681 15.82023101  3482
STARLINK-36912          
1 67961U 26038A   26070.41668981 -.00724162  00000+0 -40131-2 0  9990
2 67961  97.2763  80.7960 0001214  92.4416  65.5000 15.81299684  3472
STARLINK-36881          
1 67962U 26038B   26070.50003471 -.00527942  00000+0 -28834-2 0  9991
2 67962  97.2763  80.8858 0001511  99.0727 176.7613 15.81129884  3499
STARLINK-36357          
1 67963U 26038C   26070.41668981 -.01188150  00000+0 -66494-2 0  9994
2 67963  97.2752  80.8015 0001297  79.7733  92.1356 15.81803980  3475
STARLINK-36349          
1 67964U 26038D   26070.50003471 -.00814633  00000+0 -45570-2 0  9995
2 67964  97.2753  80.8870 0001124  99.3133 181.6801 15.81321941  3490
STARLINK-36806          
1 67965U 26038E   26070.41668981 -.01370197  00000+0 -77243-2 0  9994
2 67965  97.2742  80.8033 0001223  99.7636  78.1303 15.82053944  3473
STARLINK-36820          
1 67966U 26038F   26070.41668981 -.01472892  00000+0 -81337-2 0  9999
2 67966  97.2743  80.8056 0001515  93.8030  89.0865 15.82226351  3475
STARLINK-36819          
1 67967U 26038G   26070.41668981 -.01516634  00000+0 -83414-2 0  9991
2 67967  97.2739  80.8077 0001437  99.9143  88.3775 15.82395413  3477
STARLINK-36812          
1 67968U 26038H   26070.50003471 -.01485501  00000+0 -82119-2 0  9998
2 67968  97.2733  80.8973 0001324 109.0432 198.2846 15.82229881  3493
STARLINK-36709          
1 67969U 26038J   26070.41668981 -.01491355  00000+0 -80185-2 0  9997
2 67969  97.2727  80.8142 0001516  99.2667 104.6722 15.82828886  3470
